{
    "week": 295,
    "satellites": [
        {
            "Name": "COSMOS 2545 (760)",
            "Line1": "1 45358U 20018A   24337.52041054 -.00000034  00000+0  00000+0 0  9992",
            "Line2": "2 45358  64.6709 332.0920 0012083 250.5262 109.3612  2.13102546 36694",
            "SatelliteNumber": "45358",
            "Classification": "U",
            "LaunchYear": "20",
            "LaunchNumber": "018",
            "PieceOfLaunch": "A",
            "EpochYear": "24",
            "EpochDay": 337.52041054,
            "FirstDerivativeMeanMotion": -3.4e-07,
            "SecondDerivativeMeanMotion": "00000+0",
            "BSTAR": "00000+0",
            "SetNumber": "999",
            "Inclination": 64.6709,
            "RAAN": 332.092,
            "Eccentricity": 0.0012083,
            "ArgumentOfPerigee": 250.5262,
            "MeanAnomaly": 109.3612,
            "MeanMotion": 2.13102546,
            "RevolutionNumber": "3669"
        },
        {
            "Name": "COSMOS 2547 (705K)",
            "Line1": "1 46805U 20075A   24337.23769602  .00000082  00000+0  00000+0 0  9999",
            "Line2": "2 46805  64.5956 211.2461 0006134 234.2670 125.7772  2.13102835 31937",
            "SatelliteNumber": "46805",
            "Classification": "U",
            "LaunchYear": "20",
            "LaunchNumber": "075",
            "PieceOfLaunch": "A",
            "EpochYear": "24",
            "EpochDay": 337.23769602,
            "FirstDerivativeMeanMotion": 8.2e-07,
            "SecondDerivativeMeanMotion": "00000+0",
            "BSTAR": "00000+0",
            "SetNumber": "999",
            "Inclination": 64.5956,
            "RAAN": 211.2461,
            "Eccentricity": 0.0006134,
            "ArgumentOfPerigee": 234.267,
            "MeanAnomaly": 125.7772,
            "MeanMotion": 2.13102835,
            "RevolutionNumber": "3193"
        },
        {
            "Name": "COSMOS 2557 (706K)",
            "Line1": "1 52984U 22075A   24337.40366784 -.00000035  00000+0  00000+0 0  9998",
            "Line2": "2 52984  64.6020 334.2104 0014123 277.8189  82.0420  2.13102000 18743",
            "SatelliteNumber": "52984",
            "Classification": "U",
            "LaunchYear": "22",
            "LaunchNumber": "075",
            "PieceOfLaunch": "A",
            "EpochYear": "24",
            "EpochDay": 337.40366784,
            "FirstDerivativeMeanMotion": -3.5e-07,
            "SecondDerivativeMeanMotion": "00000+0",
            "BSTAR": "00000+0",
            "SetNumber": "999",
            "Inclination": 64.602,
            "RAAN": 334.2104,
            "Eccentricity": 0.0014123,
            "ArgumentOfPerigee": 277.8189,
            "MeanAnomaly": 82.042,
            "MeanMotion": 2.13102,
            "RevolutionNumber": "1874"
        },
        {
            "Name": "COSMOS 2559 (707K)",
            "Line1": "1 54031U 22130A   24337.34710370 -.00000036  00000+0  00000+0 0  9993",
            "Line2": "2 54031  64.5740 334.3242 0008147 233.9668 125.9794  2.13101359 16716",
            "SatelliteNumber": "54031",
            "Classification": "U",
            "LaunchYear": "22",
            "LaunchNumber": "130",
            "PieceOfLaunch": "A",
            "EpochYear": "24",
            "EpochDay": 337.3471037,
            "FirstDerivativeMeanMotion": -3.6e-07,
            "SecondDerivativeMeanMotion": "00000+0",
            "BSTAR": "00000+0",
            "SetNumber": "999",
            "Inclination": 64.574,
            "RAAN": 334.3242,
            "Eccentricity": 0.0008147,
            "ArgumentOfPerigee": 233.9668,
            "MeanAnomaly": 125.9794,
            "MeanMotion": 2.13101359,
            "RevolutionNumber": "1671"
        },
        {
            "Name": "COSMOS 2564 (761)",
            "Line1": "1 54377U 22161A   24337.53731112  .00000081  00000+0  00000+0 0  9997",
            "Line2": "2 54377  64.7371 211.3711 0008238 209.7128 150.3414  2.13102116 15665",
            "SatelliteNumber": "54377",
            "Classification": "U",
            "LaunchYear": "22",
            "LaunchNumber": "161",
            "PieceOfLaunch": "A",
            "EpochYear": "24",
            "EpochDay": 337.53731112,
            "FirstDerivativeMeanMotion": 8.1e-07,
            "SecondDerivativeMeanMotion": "00000+0",
            "BSTAR": "00000+0",
            "SetNumber": "999",
            "Inclination": 64.7371,
            "RAAN": 211.3711,
            "Eccentricity": 0.0008238,
            "ArgumentOfPerigee": 209.7128,
            "MeanAnomaly": 150.3414,
            "MeanMotion": 2.13102116,
            "RevolutionNumber": "1566"
        },
        {
            "Name": "COSMOS 2569 (703K)",
            "Line1": "1 57517U 23114A   24337.08394373  .00000007  00000+0  00000+0 0  9997",
            "Line2": "2 57517  64.9963  91.6241 0009702 289.2470  70.6348  2.13104089 10284",
            "SatelliteNumber": "57517",
            "Classification": "U",
            "LaunchYear": "23",
            "LaunchNumber": "114",
            "PieceOfLaunch": "A",
            "EpochYear": "24",
            "EpochDay": 337.08394373,
            "FirstDerivativeMeanMotion": 7e-08,
            "SecondDerivativeMeanMotion": "00000+0",
            "BSTAR": "00000+0",
            "SetNumber": "999",
            "Inclination": 64.9963,
            "RAAN": 91.6241,
            "Eccentricity": 0.0009702,
            "ArgumentOfPerigee": 289.247,
            "MeanAnomaly": 70.6348,
            "MeanMotion": 2.13104089,
            "RevolutionNumber": "1028"
        }
    ]
}